CTC1_L_00666007-03
1 10062U 23951JH  26075.70040509  .00000000  00000+0  00000-0 0  9993
2 10062  60.0000 180.0000 0000000   0.0000 144.0000  2.02645322    12
CTC1_L_00666007-04
1 10063U 26419SK  26075.70040509  .00000000  00000+0  00000-0 0  9996
2 10063  60.0000 180.0000 0000000   0.0000 180.0000  2.02645322    13
CTC1_L_00666007-05
1 10064U 24814AS  26075.70040509  .00000000  00000+0  00000-0 0  9994
2 10064  60.0000 180.0000 0000000   0.0000 216.0000  2.02645322    14
CTC1_L_00666007-06
1 10065U 23681HO  26075.70040509  .00000000  00000+0  00000-0 0  9996
2 10065  60.0000 180.0000 0000000   0.0000 252.0000  2.02645322    15
CTC1_L_00666007-07
1 10066U 23575CL  26075.70040509  .00000000  00000+0  00000-0 0  9999
2 10066  60.0000 180.0000 0000000   0.0000 288.0000  2.02645322    15
CTC1_L_00666007-08
1 10067U 24977DQ  26075.70040509  .00000000  00000+0  00000-0 0  9997
2 10067  60.0000 180.0000 0000000   0.0000 324.0000  2.02645322    17
CTC1_L_00666007-09
1 10068U 26519JM  26075.70040509  .00000000  00000+0  00000-0 0  9992
2 10068  60.0000 180.0000 0000000   0.0000   0.0000  2.02645322    19
CTC1_L_00666007-10
1 10069U 25178CF  26075.70040509  .00000000  00000+0  00000-0 0  9993
2 10069  60.0000 180.0000 0000000   0.0000  36.0000  2.02645322    19
CTC1_L_00666008-01
1 10070U 26503LT  26075.70040509  .00000000  00000+0  00000-0 0  9998
2 10070  60.0000 210.0000 0000000   0.0000  84.0000  2.02645322    18
CTC1_L_00666008-02
1 10071U 24966BT  26075.70040509  .00000000  00000+0  00000-0 0  9990
2 10071  60.0000 210.0000 0000000   0.0000 120.0000  2.02645322    10
CTC1_L_00666008-03
1 10072U 24033CD  26075.70040509  .00000000  00000+0  00000-0 0  9996
2 10072  60.0000 210.0000 0000000   0.0000 156.0000  2.02645322    10
CTC1_L_00666008-04
1 10073U 26809PH  26075.70040509  .00000000  00000+0  00000-0 0  9990
2 10073  60.0000 210.0000 0000000   0.0000 192.0000  2.02645322    11
CTC1_L_00666008-05
1 10074U 25493AV  26075.70040509  .00000000  00000+0  00000-0 0  9999
2 10074  60.0000 210.0000 0000000   0.0000 228.0000  2.02645322    12
CTC1_L_00666008-06
1 10075U 23127OC  26075.70040509  .00000000  00000+0  00000-0 0  9992
2 10075  60.0000 210.0000 0000000   0.0000 264.0000  2.02645322    13
CTC1_L_00666008-07
1 10076U 26755IE  26075.70040509  .00000000  00000+0  00000-0 0  9993
2 10076  60.0000 210.0000 0000000   0.0000 300.0000  2.02645322    15
CTC1_L_00666008-08
1 10077U 26584HX  26075.70040509  .00000000  00000+0  00000-0 0  9994
2 10077  60.0000 210.0000 0000000   0.0000 336.0000  2.02645322    15
CTC1_L_00666008-09
1 10078U 26964JB  26075.70040509  .00000000  00000+0  00000-0 0  9997
2 10078  60.0000 210.0000 0000000   0.0000  12.0000  2.02645322    17
CTC1_L_00666008-10
1 10079U 26694JM  26075.70040509  .00000000  00000+0  00000-0 0  9998
2 10079  60.0000 210.0000 0000000   0.0000  48.0000  2.02645322    17
CTC1_L_00666009-01
1 10080U 24455QU  26075.70040509  .00000000  00000+0  00000-0 0  9993
2 10080  60.0000 240.0000 0000000   0.0000  96.0000  2.02645322    15
CTC1_L_00666009-02
1 10081U 26446LV  26075.70040509  .00000000  00000+0  00000-0 0  9996
2 10081  60.0000 240.0000 0000000   0.0000 132.0000  2.02645322    17
CTC1_L_00666009-03
1 10082U 23526VK  26075.70040509  .00000000  00000+0  00000-0 0  9993
2 10082  60.0000 240.0000 0000000   0.0000 168.0000  2.02645322    17
CTC1_L_00666009-04
1 10083U 22502KY  26075.70040509  .00000000  00000+0  00000-0 0  9997
2 10083  60.0000 240.0000 0000000   0.0000 204.0000  2.02645322    19
CTC1_L_00666009-05
1 10084U 26841AY  26075.70040509  .00000000  00000+0  00000-0 0  9998
2 10084  60.0000 240.0000 0000000   0.0000 240.0000  2.02645322    10
CTC1_L_00666009-06
1 10085U 24013LK  26075.70040509  .00000000  00000+0  00000-0 0  9998
2 10085  60.0000 240.0000 0000000   0.0000 276.0000  2.02645322    10
CTC1_L_00666009-07
1 10086U 26390KM  26075.70040509  .00000000  00000+0  00000-0 0  9999
2 10086  60.0000 240.0000 0000000   0.0000 312.0000  2.02645322    12
CTC1_L_00666009-08
1 10087U 26723ZS  26075.70040509  .00000000  00000+0  00000-0 0  9990
2 10087  60.0000 240.0000 0000000   0.0000 348.0000  2.02645322    12
CTC1_L_00666009-09
1 10088U 23919ZI  26075.70040509  .00000000  00000+0  00000-0 0  9995
2 10088  60.0000 240.0000 0000000   0.0000  24.0000  2.02645322    14
CTC1_L_00666009-10
1 10089U 26379HV  26075.70040509  .00000000  00000+0  00000-0 0  9999
2 10089  60.0000 240.0000 0000000   0.0000  60.0000  2.02645322    15
CTC1_L_00666010-01
1 10090U 24133BR  26075.70040509  .00000000  00000+0  00000-0 0  9997
2 10090  60.0000 270.0000 0000000   0.0000 108.0000  2.02645322    13
CTC1_L_00666010-02
1 10091U 23047MU  26075.70040509  .00000000  00000+0  00000-0 0  9991
2 10091  60.0000 270.0000 0000000   0.0000 144.0000  2.02645322    14
CTC1_L_00666010-03
1 10092U 22120LP  26075.70040509  .00000000  00000+0  00000-0 0  9993
2 10092  60.0000 270.0000 0000000   0.0000 180.0000  2.02645322    15
CTC1_L_00666010-04
1 10093U 22896AT  26075.70040509  .00000000  00000+0  00000-0 0  9994
2 10093  60.0000 270.0000 0000000   0.0000 216.0000  2.02645322    16
CTC1_L_00666010-05
1 10094U 26780RQ  26075.70040509  .00000000  00000+0  00000-0 0  9991
2 10094  60.0000 270.0000 0000000   0.0000 252.0000  2.02645322    17
CTC1_L_00666010-06
1 10095U 24440KQ  26075.70040509  .00000000  00000+0  00000-0 0  9993
2 10095  60.0000 270.0000 0000000   0.0000 288.0000  2.02645322    17
CTC1_L_00666010-07
1 10096U 24933QY  26075.70040509  .00000000  00000+0  00000-0 0  9991
2 10096  60.0000 270.0000 0000000   0.0000 324.0000  2.02645322    19
CTC1_L_00666010-08
1 10097U 22661KD  26075.70040509  .00000000  00000+0  00000-0 0  9998
2 10097  60.0000 270.0000 0000000   0.0000   0.0000  2.02645322    11
CTC1_L_00666010-09
1 10098U 26118CZ  26075.70040509  .00000000  00000+0  00000-0 0  9990
2 10098  60.0000 270.0000 0000000   0.0000  36.0000  2.02645322    11
CTC1_L_00666010-10
1 10099U 24704MO  26075.70040509  .00000000  00000+0  00000-0 0  9990
2 10099  60.0000 270.0000 0000000   0.0000  72.0000  2.02645322    12
CTC1_L_00666011-01
1 10100U 26490QJ  26075.70040509  .00000000  00000+0  00000-0 0  9997
2 10100  60.0000 300.0000 0000000   0.0000 120.0000  2.02645322    13
CTC1_L_00666011-02
1 10101U 23344CN  26075.70040509  .00000000  00000+0  00000-0 0  9993
2 10101  60.0000 300.0000 0000000   0.0000 156.0000  2.02645322    13
CTC1_L_00666011-03
1 10102U 23934MO  26075.70040509  .00000000  00000+0  00000-0 0  9999
2 10102  60.0000 300.0000 0000000   0.0000 192.0000  2.02645322    14
CTC1_L_00666011-04
1 10103U 23085SK  26075.70040509  .00000000  00000+0  00000-0 0  9997
2 10103  60.0000 300.0000 0000000   0.0000 228.0000  2.02645322    15
CTC1_L_00666011-05
1 10104U 24078DJ  26075.70040509  .00000000  00000+0  00000-0 0  9991
2 10104  60.0000 300.0000 0000000   0.0000 264.0000  2.02645322    16
CTC1_L_00666011-06
1 10105U 25902SW  26075.70040509  .00000000  00000+0  00000-0 0  9999
2 10105  60.0000 300.0000 0000000   0.0000 300.0000  2.02645322    18
CTC1_L_00666011-07
1 10106U 25613LZ  26075.70040509  .00000000  00000+0  00000-0 0  9999
2 10106  60.0000 300.0000 0000000   0.0000 336.0000  2.02645322    18
CTC1_L_00666011-08
1 10107U 23377OS  26075.70040509  .00000000  00000+0  00000-0 0  9995
2 10107  60.0000 300.0000 0000000   0.0000  12.0000  2.02645322    10
CTC1_L_00666011-09
1 10108U 26762BL  26075.70040509  .00000000  00000+0  00000-0 0  9997
2 10108  60.0000 300.0000 0000000   0.0000  48.0000  2.02645322    10
CTC1_L_00666011-10
1 10109U 26556PB  26075.70040509  .00000000  00000+0  00000-0 0  9999
2 10109  60.0000 300.0000 0000000   0.0000  84.0000  2.02645322    11
CTC1_L_00666012-01
1 10110U 26489ZC  26075.70040509  .00000000  00000+0  00000-0 0  9996
2 10110  60.0000 330.0000 0000000   0.0000 132.0000  2.02645322    10
CTC1_L_00666012-02
1 10111U 25578GH  26075.70040509  .00000000  00000+0  00000-0 0  9995
2 10111  60.0000 330.0000 0000000   0.0000 168.0000  2.02645322    10
CTC1_L_00666012-03
1 10112U 26280ZY  26075.70040509  .00000000  00000+0  00000-0 0  9997
2 10112  60.0000 330.0000 0000000   0.0000 204.0000  2.02645322    12
CTC1_L_00666012-04
1 10113U 22961WO  26075.70040509  .00000000  00000+0  00000-0 0  9990
2 10113  60.0000 330.0000 0000000   0.0000 240.0000  2.02645322    13
CTC1_L_00666012-05
1 10114U 24787IF  26075.70040509  .00000000  00000+0  00000-0 0  9999
2 10114  60.0000 330.0000 0000000   0.0000 276.0000  2.02645322    13
CTC1_L_00666012-06
1 10115U 26844HA  26075.70040509  .00000000  00000+0  00000-0 0  9996
2 10115  60.0000 330.0000 0000000   0.0000 312.0000  2.02645322    15
CTC1_L_00666012-07
1 10116U 22486OW  26075.70040509  .00000000  00000+0  00000-0 0  9995
2 10116  60.0000 330.0000 0000000   0.0000 348.0000  2.02645322    15
CTC1_L_00666012-08
1 10117U 23514VD  26075.70040509  .00000000  00000+0  00000-0 0  9999
2 10117  60.0000 330.0000 0000000   0.0000  24.0000  2.02645322    17
CTC1_L_00666012-09
1 10118U 23143RP  26075.70040509  .00000000  00000+0  00000-0 0  9998
2 10118  60.0000 330.0000 0000000   0.0000  60.0000  2.02645322    18
CTC1_L_00666012-10
1 10119U 22128ZO  26075.70040509  .00000000  00000+0  00000-0 0  9991
2 10119  60.0000 330.0000 0000000   0.0000  96.0000  2.02645322    18
